NORAD_CAT_ID,OBJECT_NAME,OBJECT_TYPE,EPOCH,MEAN_MOTION,ECCENTRICITY,INCLINATION,RA_OF_ASC_NODE,ARG_OF_PERICENTER,MEAN_ANOMALY,BSTAR,MEAN_MOTION_DOT,MEAN_MOTION_DDOT,TLE_LINE0,TLE_LINE1,TLE_LINE2,SEMIMAJOR_AXIS,PERIOD,APOGEE,PERIGEE,DECAYED
55634.0,STARLINK-5500,PAYLOAD,2023-07-15 05:52:30,14.98337701,0.0003231,69.9999,126.2857,268.7656,91.3133,0.00011972,1.336e-05,0.0,0 STARLINK-5500,1 55634U 23021G   23196.24479764  .00001336  00000-0  11972-3 0  9991,2 55634  69.9999 126.2857 0003231 268.7656  91.3133 14.98337701 22935,6950.169,96.107,574.28,569.788,0.0
55634.0,STARLINK-5500,PAYLOAD,2023-07-16 02:42:16,14.98327729,0.0003145,70.0001,124.0975,267.9727,92.1072,-4.9059e-07,-9.9e-07,0.0,0 STARLINK-5500,1 55634U 23021G   23197.11268728 -.00000099  00000-0 -49059-6 0  9991,2 55634  70.0001 124.0975 0003145 267.9727  92.1072 14.98327729 23068,6950.2,96.107,574.251,569.879,0.0
55634.0,STARLINK-5500,PAYLOAD,2023-07-17 01:08:08,14.98338668,0.0003191,70.0003,121.7409,268.0041,92.0753,-0.00010181,-1.308e-05,0.0,0 STARLINK-5500,1 55634U 23021G   23198.04732270 -.00001308  00000-0 -10181-3 0  9997,2 55634  70.0003 121.7409 0003191 268.0041  92.0753 14.98338668 23203,6950.166,96.106,574.249,569.813,0.0
55634.0,STARLINK-5500,PAYLOAD,2023-07-18 02:46:16,14.98353735,0.0003222,70.0001,119.048,268.3343,91.7447,-0.00021447,-2.653e-05,0.0,0 STARLINK-5500,1 55634U 23021G   23199.11547437 -.00002653  00000-0 -21447-3 0  9996,2 55634  70.0001 119.0480 0003222 268.3343  91.7447 14.98353735 23368,6950.119,96.105,574.224,569.745,0.0
55634.0,STARLINK-5500,PAYLOAD,2023-07-18 18:47:38,14.98328867,0.0002945,70.0004,117.3641,262.7247,97.3577,1.0596e-05,3.3e-07,0.0,0 STARLINK-5500,1 55634U 23021G   23199.78308290  .00000033  00000-0  10596-4 0  9993,2 55634  70.0004 117.3641 0002945 262.7247  97.3577 14.98328867 23468,6950.196,96.107,574.108,570.015,0.0
55634.0,STARLINK-5500,PAYLOAD,2023-07-19 18:49:39,14.98337739,0.0002825,70.0006,114.8397,270.5928,89.4907,-0.00020083,-2.489e-05,0.0,0 STARLINK-5500,1 55634U 23021G   23200.78448478 -.00002489  00000-0 -20083-3 0  9999,2 55634  70.0006 114.8397 0002825 270.5928  89.4907 14.98337739 23614,6950.169,96.107,573.997,570.071,0.0
55634.0,STARLINK-5500,PAYLOAD,2023-07-20 18:51:40,14.98327808,0.0002971,70.0007,112.3156,270.0267,90.0551,5.8829e-05,6.09e-06,0.0,0 STARLINK-5500,1 55634U 23021G   23201.78588388  .00000609  00000-0  58829-4 0  9995,2 55634  70.0007 112.3156 0002971 270.0267  90.0551 14.98327808 23769,6950.2,96.107,574.13,570.0,0.0
55634.0,STARLINK-5500,PAYLOAD,2023-07-23 17:21:35,14.98328826,0.0002444,70.0017,104.9118,249.7022,110.3874,-1.4422e-06,-1.1e-06,0.0,0 STARLINK-5500,1 55634U 23021G   23204.72332332 -.00000110  00000-0 -14422-5 0  9999,2 55634  70.0017 104.9118 0002444 249.7022 110.3874 14.98328826 24500,6950.197,96.107,573.76,570.363,0.0
55634.0,STARLINK-5500,PAYLOAD,2023-07-25 11:01:04,14.98333176,0.0003304,69.9993,100.5329,265.3943,94.6839,-1.7296e-05,-2.99e-06,0.0,0 STARLINK-5500,1 55634U 23021G   23206.45908004 -.00000299  00000-0 -17296-4 0  9995,2 55634  69.9993 100.5329 0003304 265.3943  94.6839 14.98333176 24765,6950.183,96.107,574.344,569.752,0.0
55634.0,STARLINK-5500,PAYLOAD,2023-07-26 03:02:25,14.98332904,0.0003232,69.9995,98.8499,265.2064,94.8726,5.0511e-05,5.1e-06,0.0,0 STARLINK-5500,1 55634U 23021G   23207.12667989  .00000510  00000-0  50511-4 0  9995,2 55634  69.9995  98.8499 0003232 265.2064  94.8726 14.98332904 24863,6950.184,96.107,574.295,569.803,0.0
55634.0,STARLINK-5500,PAYLOAD,2023-07-26 20:39:54,14.98317772,0.0003269,69.9996,96.9982,264.4339,95.6447,0.00023553,2.718e-05,0.0,0 STARLINK-5500,1 55634U 23021G   23207.86104342  .00002718  00000-0  23553-3 0  9992,2 55634  69.9996  96.9982 0003269 264.4339  95.6447 14.98317772 24973,6950.231,96.108,574.368,569.824,0.0
55634.0,STARLINK-5500,PAYLOAD,2023-07-27 09:28:58,14.98335665,0.0003015,69.9992,95.6515,269.778,90.3034,-1.1645e-05,-2.32e-06,0.0,0 STARLINK-5500,1 55634U 23021G   23208.39511897 -.00000232  00000-0 -11645-4 0  9999,2 55634  69.9992  95.6515 0003015 269.7780  90.3034 14.98335665 24755,6950.175,96.107,574.136,569.945,0.0
55634.0,STARLINK-5500,PAYLOAD,2023-07-27 22:18:03,14.98317467,0.0003279,69.9984,94.3067,268.2301,91.8483,-7.2596e-05,-9.59e-06,0.0,0 STARLINK-5500,1 55634U 23021G   23208.92921256 -.00000959  00000-0 -72596-4 0  9990,2 55634  69.9984  94.3067 0003279 268.2301  91.8483 14.98317467 25136,6950.232,96.108,574.376,569.818,0.0
55634.0,STARLINK-5500,PAYLOAD,2023-07-27 23:54:11,14.98323313,0.0003324,69.9993,94.1373,269.0246,91.0532,-8.7442e-05,-1.136e-05,0.0,0 STARLINK-5500,1 55634U 23021G   23208.99596894 -.00001136  00000-0 -87442-4 0  9997,2 55634  69.9993  94.1373 0003324 269.0246  91.0532 14.98323313 24843,6950.214,96.107,574.389,569.768,0.0
55634.0,STARLINK-5500,PAYLOAD,2023-07-29 01:32:19,14.98362096,0.0003144,69.9995,91.4436,256.3496,103.7313,-0.00035561,-4.337e-05,0.0,0 STARLINK-5500,1 55634U 23021G   23210.06411050 -.00004337  00000-0 -35561-3 0  9998,2 55634  69.9995  91.4436 0003144 256.3496 103.7313 14.98362096 25009,6950.094,96.105,574.144,569.774,0.0
55634.0,STARLINK-5500,PAYLOAD,2023-07-29 03:08:26,14.98374245,0.0003012,69.9995,91.2754,249.6485,110.4351,-0.00054928,-6.648e-05,0.0,0 STARLINK-5500,1 55634U 23021G   23210.13086624 -.00006648  00000-0 -54928-3 0  9996,2 55634  69.9995  91.2754 0003012 249.6485 110.4351 14.98374245 25014,6950.056,96.104,574.014,569.828,0.0
55634.0,STARLINK-5500,PAYLOAD,2023-07-29 19:09:49,14.98322994,0.0003212,69.9995,89.5914,268.8321,91.247,9.8751e-05,1.085e-05,0.0,0 STARLINK-5500,1 55634U 23021G   23210.79848406  .00001085  00000-0  98751-4 0  9993,2 55634  69.9995  89.5914 0003212 268.8321  91.2470 14.98322994 25119,6950.215,96.107,574.312,569.847,0.0
55634.0,STARLINK-5500,PAYLOAD,2023-07-30 01:34:20,14.98330039,0.0003187,69.9995,88.9174,266.9399,93.1396,0.00011719,1.306e-05,0.0,0 STARLINK-5500,1 55634U 23021G   23211.06551940  .00001306  00000-0  11719-3 0  9992,2 55634  69.9995  88.9174 0003187 266.9399  93.1396 14.98330039 25156,6950.193,96.107,574.273,569.843,0.0
55634.0,STARLINK-5500,PAYLOAD,2023-07-31 01:36:21,14.98358294,0.0003315,69.9996,86.3932,269.1565,90.9215,-0.00036365,-4.433e-05,0.0,0 STARLINK-5500,1 55634U 23021G   23212.06691377 -.00004433  00000-0 -36365-3 0  9992,2 55634  69.9996  86.3932 0003315 269.1565  90.9215 14.98358294 25309,6950.105,96.105,574.274,569.666,0.0
55634.0,STARLINK-5500,PAYLOAD,2023-07-31 09:37:02,14.98331521,0.0003105,69.9995,85.5516,266.4881,93.5923,-1.5066e-05,-2.73e-06,0.0,0 STARLINK-5500,1 55634U 23021G   23212.40071999 -.00000273  00000-0 -15066-4 0  9996,2 55634  69.9995  85.5516 0003105 266.4881  93.5923 14.98331521 25359,6950.188,96.107,574.211,569.895,0.0
55634.0,STARLINK-5500,PAYLOAD,2023-08-01 17:39:43,14.98329947,0.0002938,69.9999,82.1852,269.3944,90.6878,2.3858e-08,-9.3e-07,0.0,0 STARLINK-5500,1 55634U 23021G   23213.73592055 -.00000093  00000-0  23858-7 0  9994,2 55634  69.9999  82.1852 0002938 269.3944  90.6878 14.98329947 25552,6950.193,96.107,574.1,570.016,0.0
55634.0,STARLINK-5500,PAYLOAD,2023-08-02 17:41:44,14.98331657,0.0002983,69.9998,79.6603,268.2447,91.837,4.4871e-05,4.42e-06,0.0,0 STARLINK-5500,1 55634U 23021G   23214.73731705  .00000442  00000-0  44871-4 0  9994,2 55634  69.9998  79.6603 0002983 268.2447  91.8370 14.98331657 25700,6950.188,96.107,574.126,569.98,0.0
55634.0,STARLINK-5500,PAYLOAD,2023-08-03 17:43:45,14.9832662,0.0002889,69.9999,77.1359,265.9314,94.1515,-3.9335e-05,-5.62e-06,0.0,0 STARLINK-5500,1 55634U 23021G   23215.73872170 -.00000562  00000-0 -39335-4 0  9991,2 55634  69.9999  77.1359 0002889 265.9314  94.1515 14.98326620 25851,6950.203,96.107,574.076,570.06,0.0
55634.0,STARLINK-5500,PAYLOAD,2023-08-04 17:45:46,14.98331598,0.0002916,70.0,74.6116,264.6983,95.3843,-1.4021e-05,-2.6e-06,0.0,0 STARLINK-5500,1 55634U 23021G   23216.74011873 -.00000260  00000-0 -14021-4 0  9998,2 55634  70.0000  74.6116 0002916 264.6983  95.3843 14.98331598 26004,6950.188,96.107,574.08,570.026,0.0
55634.0,STARLINK-5500,PAYLOAD,2023-08-05 17:47:46,14.98331083,0.0003098,69.9998,72.0856,268.0006,92.0798,8.9642e-05,9.77e-06,0.0,0 STARLINK-5500,1 55634U 23021G   23217.74151526  .00000977  00000-0  89642-4 0  9993,2 55634  69.9998  72.0856 0003098 268.0006  92.0798 14.98331083 26154,6950.19,96.107,574.208,569.901,0.0
55634.0,STARLINK-5500,PAYLOAD,2023-08-06 17:49:48,14.98321261,0.0003033,69.9999,69.5596,270.1024,89.9787,-8.7877e-05,-1.141e-05,0.0,0 STARLINK-5500,1 55634U 23021G   23218.74292673 -.00001141  00000-0 -87877-4 0  9997,2 55634  69.9999  69.5596 0003033 270.1024  89.9787 14.98321261 26307,6950.22,96.108,574.193,569.977,0.0
55634.0,STARLINK-5500,PAYLOAD,2023-08-07 19:27:57,14.98327562,0.000309,70.0001,66.8674,269.3441,90.7364,-4.2224e-05,-5.97e-06,0.0,0 STARLINK-5500,1 55634U 23021G   23219.81108513 -.00000597  00000-0 -42224-4 0  9996,2 55634  70.0001  66.8674 0003090 269.3441  90.7364 14.98327562 26465,6950.2,96.107,574.213,569.918,0.0
55634.0,STARLINK-5500,PAYLOAD,2023-08-08 19:29:57,14.98332199,0.0003327,69.9996,64.3421,271.9232,88.1546,0.00020792,2.389e-05,0.0,0 STARLINK-5500,1 55634U 23021G   23220.81247431  .00002389  00000-0  20792-3 0  9995,2 55634  69.9996  64.3421 0003327 271.9232  88.1546 14.98332199 26610,6950.186,96.107,574.363,569.739,0.0
55634.0,STARLINK-5500,PAYLOAD,2023-08-09 14:43:35,14.98329915,0.0003165,69.9998,62.3226,269.6115,90.4681,2.9283e-06,-5.8e-07,0.0,0 STARLINK-5500,1 55634U 23021G   23221.61359988 -.00000058  00000-0  29283-5 0  9993,2 55634  69.9998  62.3226 0003165 269.6115  90.4681 14.98329915 26738,6950.193,96.107,574.258,569.858,0.0
55634.0,STARLINK-5500,PAYLOAD,2023-08-10 19:33:59,14.98359747,0.0003409,69.9997,59.292,269.9451,90.1318,-0.00042555,-5.171e-05,0.0,0 STARLINK-5500,1 55634U 23021G   23222.81527166 -.00005171  00000-0 -42555-3 0  9998,2 55634  69.9997  59.2920 0003409 269.9451  90.1318 14.98359747 26910,6950.101,96.105,574.335,569.597,0.0
